start=new Date('2021-10-24T00:00:00.000Z').valueOf();
sats=[{"PERIOD":"95.592","RCS_SIZE":"LARGE","ECCENTRICITY":"0.00011690","SEMIMAJOR_AXIS":"6925.353","TLE_LINE1":"1 45686U 20035AF  21296.77009291 -.00001150  00000-0 -58343-4 0  9990","RA_OF_ASC_NODE":"29.9641","REV_AT_EPOCH":"7803","PERIAPSIS":"546.408","MEAN_ELEMENT_THEORY":"SGP4","LAUNCH_DATE":"2020-06-04","TLE_LINE2":"2 45686  53.0548  29.9641 0001169  86.5805 273.5317 15.06398695 78034","EPOCH":"2021-10-23T18:28:56.027424","MEAN_MOTION_DOT":"-0.00001150","OBJECT_TYPE":"PAYLOAD","ARG_OF_PERICENTER":"86.5805","SITE":"AFETR","OBJECT_NAME":"STARLINK-1404","FILE":"3181152","APOAPSIS":"548.027","ELEMENT_SET_NO":"999","TIME_SYSTEM":"UTC","DECAY_DATE":null,"OBJECT_ID":"2020-035AF","MEAN_MOTION":"15.06398695","MEAN_MOTION_DDOT":"0.0000000000000","COUNTRY_CODE":"US","NORAD_CAT_ID":"45686","MEAN_ANOMALY":"273.5317","REF_FRAME":"TEME","GP_ID":"188022592","BSTAR":"-0.00005834300000","EPHEMERIS_TYPE":"0","INCLINATION":"53.0548","CLASSIFICATION_TYPE":"U","CENTER_NAME":"EARTH"},{"FILE":"3181152","APOAPSIS":"550.626","ELEMENT_SET_NO":"999","OBJECT_NAME":"STARLINK-1406","ARG_OF_PERICENTER":"67.1519","SITE":"AFETR","OBJECT_ID":"2020-035AG","DECAY_DATE":null,"MEAN_MOTION_DDOT":"0.0000000000000","MEAN_MOTION":"15.05582328","TIME_SYSTEM":"UTC","REF_FRAME":"TEME","GP_ID":"188023344","BSTAR":"-0.00000560110000","COUNTRY_CODE":"US","NORAD_CAT_ID":"45687","MEAN_ANOMALY":"292.9607","CLASSIFICATION_TYPE":"U","INCLINATION":"53.0031","CENTER_NAME":"EARTH","EPHEMERIS_TYPE":"0","PERIOD":"95.644","RA_OF_ASC_NODE":"20.2559","RCS_SIZE":"LARGE","ECCENTRICITY":"0.00013070","SEMIMAJOR_AXIS":"6927.856","TLE_LINE1":"1 45687U 20035AG  21296.70480100 -.00000361  00000-0 -56011-5 0  9990","REV_AT_EPOCH":"7813","LAUNCH_DATE":"2020-06-04","MEAN_ELEMENT_THEORY":"SGP4","PERIAPSIS":"548.815","OBJECT_TYPE":"PAYLOAD","MEAN_MOTION_DOT":"-0.00000361","TLE_LINE2":"2 45687  53.0031  20.2559 0001307  67.1519 292.9607 15.05582328 78130","EPOCH":"2021-10-23T16:54:54.806400"},{"RCS_SIZE":"LARGE","ECCENTRICITY":"0.00012110","SEMIMAJOR_AXIS":"6925.352","TLE_LINE1":"1 45688U 20035AH  21296.76271803  .00000263  00000-0  36524-4 0  9990","RA_OF_ASC_NODE":"29.9914","PERIOD":"95.592","TLE_LINE2":"2 45688  53.0554  29.9914 0001211  77.4884 282.6240 15.06398788 78028","EPOCH":"2021-10-23T18:18:18.837792","OBJECT_TYPE":"PAYLOAD","MEAN_MOTION_DOT":"0.00000263","REV_AT_EPOCH":"7802","LAUNCH_DATE":"2020-06-04","MEAN_ELEMENT_THEORY":"SGP4","PERIAPSIS":"546.379","TIME_SYSTEM":"UTC","OBJECT_ID":"2020-035AH","DECAY_DATE":null,"MEAN_MOTION_DDOT":"0.0000000000000","MEAN_MOTION":"15.06398788","ARG_OF_PERICENTER":"77.4884","SITE":"AFETR","ELEMENT_SET_NO":"999","FILE":"3181152","APOAPSIS":"548.056","OBJECT_NAME":"STARLINK-1408","EPHEMERIS_TYPE":"0","CLASSIFICATION_TYPE":"U","INCLINATION":"53.0554","CENTER_NAME":"EARTH","COUNTRY_CODE":"US","MEAN_ANOMALY":"282.6240","NORAD_CAT_ID":"45688","GP_ID":"188023095","REF_FRAME":"TEME","BSTAR":"0.00003652400000"},{"PERIOD":"95.592","TLE_LINE1":"1 45689U 20035AJ  21296.72218611  .00001380  00000-0  11151-3 0  9994","SEMIMAJOR_AXIS":"6925.357","RCS_SIZE":"LARGE","ECCENTRICITY":"0.00011610","RA_OF_ASC_NODE":"30.1717","LAUNCH_DATE":"2020-06-04","MEAN_ELEMENT_THEORY":"SGP4","PERIAPSIS":"546.418","REV_AT_EPOCH":"7793","EPOCH":"2021-10-23T17:19:56.879904","TLE_LINE2":"2 45689  53.0546  30.1717 0001161  92.2424 267.8698 15.06397365 77935","OBJECT_TYPE":"PAYLOAD","MEAN_MOTION_DOT":"0.00001380","ARG_OF_PERICENTER":"92.2424","SITE":"AFETR","APOAPSIS":"548.026","FILE":"3181152","ELEMENT_SET_NO":"999","OBJECT_NAME":"STARLINK-1413","TIME_SYSTEM":"UTC","MEAN_MOTION_DDOT":"0.0000000000000","MEAN_MOTION":"15.06397365","OBJECT_ID":"2020-035AJ","DECAY_DATE":null,"MEAN_ANOMALY":"267.8698","NORAD_CAT_ID":"45689","COUNTRY_CODE":"US","BSTAR":"0.00011151000000","GP_ID":"188021843","REF_FRAME":"TEME","EPHEMERIS_TYPE":"0","CENTER_NAME":"EARTH","CLASSIFICATION_TYPE":"U","INCLINATION":"53.0546"},{"TIME_SYSTEM":"UTC","DECAY_DATE":null,"OBJECT_ID":"2020-035AK","MEAN_MOTION":"15.05579872","MEAN_MOTION_DDOT":"0.0000000000000","SITE":"AFETR","ARG_OF_PERICENTER":"107.9974","OBJECT_NAME":"STARLINK-1414","APOAPSIS":"550.434","FILE":"3181152","ELEMENT_SET_NO":"999","EPHEMERIS_TYPE":"0","INCLINATION":"53.0036","CLASSIFICATION_TYPE":"U","CENTER_NAME":"EARTH","COUNTRY_CODE":"US","MEAN_ANOMALY":"252.1125","NORAD_CAT_ID":"45690","GP_ID":"188022093","REF_FRAME":"TEME","BSTAR":"0.00001275700000","RCS_SIZE":"LARGE","ECCENTRICITY":"0.00010180","SEMIMAJOR_AXIS":"6927.863","TLE_LINE1":"1 45690U 20035AK  21296.70666376 -.00000093  00000-0  12757-4 0  9994","RA_OF_ASC_NODE":"30.2437","PERIOD":"95.644","TLE_LINE2":"2 45690  53.0036  30.2437 0001018 107.9974 252.1125 15.05579872 77998","EPOCH":"2021-10-23T16:57:35.748864","MEAN_MOTION_DOT":"-0.00000093","OBJECT_TYPE":"PAYLOAD","REV_AT_EPOCH":"7799","PERIAPSIS":"549.023","MEAN_ELEMENT_THEORY":"SGP4","LAUNCH_DATE":"2020-06-04"},{"REV_AT_EPOCH":"7801","MEAN_ELEMENT_THEORY":"SGP4","PERIAPSIS":"546.366","LAUNCH_DATE":"2020-06-04","TLE_LINE2":"2 45691  53.0567  30.5486 0001270  87.6349 272.4786 15.06389440 78018","EPOCH":"2021-10-23T15:23:10.614048","MEAN_MOTION_DOT":"0.00000083","OBJECT_TYPE":"PAYLOAD","PERIOD":"95.593","SEMIMAJOR_AXIS":"6925.381","RCS_SIZE":"LARGE","ECCENTRICITY":"0.00012700","TLE_LINE1":"1 45691U 20035AL  21296.64109507  .00000083  00000-0  24448-4 0  9994","RA_OF_ASC_NODE":"30.5486","COUNTRY_CODE":"US","NORAD_CAT_ID":"45691","MEAN_ANOMALY":"272.4786","REF_FRAME":"TEME","GP_ID":"188022845","BSTAR":"0.00002444800000","EPHEMERIS_TYPE":"0","INCLINATION":"53.0567","CLASSIFICATION_TYPE":"U","CENTER_NAME":"EARTH","SITE":"AFETR","ARG_OF_PERICENTER":"87.6349","OBJECT_NAME":"STARLINK-1415","ELEMENT_SET_NO":"999","FILE":"3181152","APOAPSIS":"548.125","TIME_SYSTEM":"UTC","DECAY_DATE":null,"OBJECT_ID":"2020-035AL","MEAN_MOTION":"15.06389440","MEAN_MOTION_DDOT":"0.0000000000000"},{"TLE_LINE1":"1 45692U 20035AM  21296.70006088  .00001466  00000-0  11728-3 0  9994","SEMIMAJOR_AXIS":"6925.346","RCS_SIZE":"LARGE","ECCENTRICITY":"0.00010910","RA_OF_ASC_NODE":"30.2832","PERIOD":"95.592","EPOCH":"2021-10-23T16:48:05.260032","TLE_LINE2":"2 45692  53.0563  30.2832 0001091  86.9928 273.1186 15.06400863 78018","MEAN_MOTION_DOT":"0.00001466","OBJECT_TYPE":"PAYLOAD","MEAN_ELEMENT_THEORY":"SGP4","PERIAPSIS":"546.455","LAUNCH_DATE":"2020-06-04","REV_AT_EPOCH":"7801","TIME_SYSTEM":"UTC","MEAN_MOTION":"15.06400863","MEAN_MOTION_DDOT":"0.0000000000000","DECAY_DATE":null,"OBJECT_ID":"2020-035AM","ARG_OF_PERICENTER":"86.9928","SITE":"AFETR","OBJECT_NAME":"STARLINK-1416","APOAPSIS":"547.966","FILE":"3181152","ELEMENT_SET_NO":"999","EPHEMERIS_TYPE":"0","CENTER_NAME":"EARTH","INCLINATION":"53.0563","CLASSIFICATION_TYPE":"U","MEAN_ANOMALY":"273.1186","NORAD_CAT_ID":"45692","COUNTRY_CODE":"US","BSTAR":"0.00011728000000","GP_ID":"188023595","REF_FRAME":"TEME"},{"PERIAPSIS":"546.423","MEAN_ELEMENT_THEORY":"SGP4","LAUNCH_DATE":"2020-06-04","REV_AT_EPOCH":"7800","EPOCH":"2021-10-23T15:39:05.348736","TLE_LINE2":"2 45693  53.0560  30.4951 0001143  96.9556 263.1563 15.06399815 78007","MEAN_MOTION_DOT":"0.00001504","OBJECT_TYPE":"PAYLOAD","PERIOD":"95.592","TLE_LINE1":"1 45693U 20035AN  21296.65214524  .00001504  00000-0  11984-3 0  9992","SEMIMAJOR_AXIS":"6925.349","RCS_SIZE":"LARGE","ECCENTRICITY":"0.00011430","RA_OF_ASC_NODE":"30.4951","MEAN_ANOMALY":"263.1563","NORAD_CAT_ID":"45693","COUNTRY_CODE":"US","BSTAR":"0.00011984000000","REF_FRAME":"TEME","GP_ID":"188022343","EPHEMERIS_TYPE":"0","CENTER_NAME":"EARTH","INCLINATION":"53.0560","CLASSIFICATION_TYPE":"U","SITE":"AFETR","ARG_OF_PERICENTER":"96.9556","OBJECT_NAME":"STARLINK-1417","FILE":"3181152","ELEMENT_SET_NO":"999","APOAPSIS":"548.006","TIME_SYSTEM":"UTC","MEAN_MOTION":"15.06399815","MEAN_MOTION_DDOT":"0.0000000000000","DECAY_DATE":null,"OBJECT_ID":"2020-035AN"},{"PERIOD":"95.593","TLE_LINE1":"1 45694U 20035AP  21296.72586730  .00000477  00000-0  50940-4 0  9996","ECCENTRICITY":"0.00011150","RCS_SIZE":"LARGE","SEMIMAJOR_AXIS":"6925.372","RA_OF_ASC_NODE":"30.1586","MEAN_ELEMENT_THEORY":"SGP4","PERIAPSIS":"546.464","LAUNCH_DATE":"2020-06-04","REV_AT_EPOCH":"7801","EPOCH":"2021-10-23T17:25:14.934720","TLE_LINE2":"2 45694  53.0554  30.1586 0001115  99.5850 260.5265 15.06392501 78013","MEAN_MOTION_DOT":"0.00000477","OBJECT_TYPE":"PAYLOAD","ARG_OF_PERICENTER":"99.5850","SITE":"AFETR","OBJECT_NAME":"STARLINK-1419","FILE":"3181152","APOAPSIS":"548.009","ELEMENT_SET_NO":"999","TIME_SYSTEM":"UTC","MEAN_MOTION":"15.06392501","MEAN_MOTION_DDOT":"0.0000000000000","DECAY_DATE":null,"OBJECT_ID":"2020-035AP","NORAD_CAT_ID":"45694","MEAN_ANOMALY":"260.5265","COUNTRY_CODE":"US","BSTAR":"0.00005094000000","REF_FRAME":"TEME","GP_ID":"188022593","EPHEMERIS_TYPE":"0","CENTER_NAME":"EARTH","INCLINATION":"53.0554","CLASSIFICATION_TYPE":"U"},{"TIME_SYSTEM":"UTC","MEAN_MOTION_DDOT":"0.0000000000000","MEAN_MOTION":"15.06391114","OBJECT_ID":"2020-035AQ","DECAY_DATE":null,"ARG_OF_PERICENTER":"90.9712","SITE":"AFETR","FILE":"3181152","ELEMENT_SET_NO":"999","APOAPSIS":"547.976","OBJECT_NAME":"STARLINK-1420","EPHEMERIS_TYPE":"0","CENTER_NAME":"EARTH","CLASSIFICATION_TYPE":"U","INCLINATION":"53.0554","MEAN_ANOMALY":"269.1398","NORAD_CAT_ID":"45695","COUNTRY_CODE":"US","BSTAR":"0.00000462950000","GP_ID":"188023345","REF_FRAME":"TEME","TLE_LINE1":"1 45695U 20035AQ  21296.65399155 -.00000212  00000-0  46295-5 0  9999","RCS_SIZE":"LARGE","SEMIMAJOR_AXIS":"6925.376","ECCENTRICITY":"0.00010610","RA_OF_ASC_NODE":"10.4819","PERIOD":"95.593","EPOCH":"2021-10-23T15:41:44.869920","TLE_LINE2":"2 45695  53.0554  10.4819 0001061  90.9712 269.1398 15.06391114 78297","OBJECT_TYPE":"PAYLOAD","MEAN_MOTION_DOT":"-0.00000212","LAUNCH_DATE":"2020-06-04","PERIAPSIS":"546.506","MEAN_ELEMENT_THEORY":"SGP4","REV_AT_EPOCH":"7829"}];
